STARLINK-2129_new
1 17727C 21017F   21326.13577789 -.00864915  00000-0 -26218-1 0  3268
2 17727  53.0523 324.6625 0001462  48.7890  22.5377 15.34445523    17
STARLINK-2129_old
1 27727C 21017F   21325.16284501 -.00866326  00000-0 -24834-1 0  3256
2 27727  53.0524 329.2291 0001594  49.6785  40.8889 15.36204265    16
